O3B FM6                 
1 40081U 14038C   26059.33845883 -.00000028  00000+0  00000+0 0  9992
2 40081   0.0550 351.2998 0002672 345.9055  22.7755  5.00115665212383
O3B FM8                 
1 40082U 14038D   26060.39123095 -.00000029  00000+0  00000+0 0  9996
2 40082   0.0559 350.6470 0002655 351.7743  17.5619  5.00115971212540
O3B FM10                
1 40348U 14083A   26060.21839308 -.00000029  00000+0  00000+0 0  9993
2 40348   0.0436 346.8438 0002682 352.2173  20.9203  5.00115167204492
O3B FM11                
1 40349U 14083B   26060.03122697 -.00000028  00000+0  00000+0 0  9999
2 40349   0.0564   0.5818 0003152 328.0774  31.3145  5.00115556204507
O3B FM12                
1 40350U 14083C   26060.25821573 -.00000029  00000+0  00000+0 0  9995
2 40350   0.0559 359.8251 0002646 335.5126  24.6421  5.00115916204529
O3B FM9                 
1 40351U 14083D   26060.28504443 -.00000028  00000+0  00000+0 0  9992
2 40351   0.0576   0.9338 0002739 337.8400  21.2073  5.00115869204671
ASTRA 2G                
1 40364U 14089A   26060.35183495  .00000000  00000+0  00000+0 0  9999
2 40364   0.0232   2.9100 0004117  20.6810 290.4194  1.00269118 40885
SES-9                   
1 41380U 16013A   26060.39731267 -.00000363  00000+0  00000+0 0  9990
2 41380   0.0374 293.5424 0001379  95.0708  21.8884  1.00271453 36351
SES-10                  
1 42432U 17017A   26060.43388618 -.00000291  00000+0  00000+0 0  9997
2 42432   0.0182  71.7130 0002410 268.2921 268.5091  1.00269563 32675
SES-15                  
1 42709U 17026A   26060.51768826  .00000042  00000+0  00000+0 0  9999
2 42709   0.0448 306.0602 0000700  20.5059 249.9271  1.00269675  6359
SES-11 (ECHOSTAR 105)   
1 42967U 17063A   26060.39905064 -.00000107  00000+0  00000+0 0  9992
2 42967   0.0290  67.8317 0002976 265.2954 224.7651  1.00271842 30645
SES-14                  
1 43175U 18012B   26060.43769951  .00000000  00000+0  00000+0 0  9998
2 43175   0.0229 112.6453 0000971 230.9551 285.7293  1.00268835  5946
O3B FM15                
1 43231U 18024A   26060.35180598 -.00000029  00000+0  00000+0 0  9991
2 43231   0.0483   0.6252 0002711 334.9583  24.3962  5.00115613145638
O3B FM16                
1 43232U 18024B   26059.80451050 -.00000028  00000+0  00000+0 0  9993
2 43232   0.0446   2.3185 0002785 333.1821  24.4786  5.00115846145520
O3B FM14                
1 43233U 18024C   26060.24504333 -.00000028  00000+0  00000+0 0  9997
2 43233   0.0432   1.1934 0002846 339.2680  19.5202  5.00115611145554
O3B FM13                
1 43234U 18024D   26053.71450341 -.00000014  00000+0  00000+0 0  9996
2 43234   0.0534 327.5947 0005112 330.3943  61.9554  5.00115731145329
SES-12                  
1 43488U 18049A   26060.51213044  .00000000  00000+0  00000+0 0  9991
2 43488   0.0220 113.3741 0002303 187.0163 138.3006  1.00269001 28333
O3B FM20                
1 44112U 19020A   26060.47095445 -.00000029  00000+0  00000+0 0  9996
2 44112   0.0515 359.5720 0002824 328.9182  31.4854  5.00115422126177
O3B FM19                
1 44113U 19020B   26058.89895873 -.00000027  00000+0  00000+0 0  9991
2 44113   0.0602 347.5601 0004795 353.9797  18.4356  5.00116325125971
O3B FM17                
1 44114U 19020C   26060.37823956 -.00000029  00000+0  00000+0 0  9993
2 44114   0.0398 339.3013 0002696 355.6300  25.0481  5.00115420126123
O3B FM18                
1 44115U 19020D   26060.32453059 -.00000029  00000+0  00000+0 0  9992
2 44115   0.0518   0.0146 0002752 339.3814  20.5853  5.00115260126258
SES-17                  
1 49332U 21095A   26060.43379951 -.00000290  00000+0  00000+0 0  9993
2 49332   0.0229  63.5171 0000666 245.4822 299.2788  1.00271547 16777
SES-22                  
1 52933U 22071A   26060.35369727  .00000086  00000+0  00000+0 0  9992
2 52933   0.0201  92.1810 0001126 236.2912 178.9879  1.00273322  6446
SES-20                  
1 53960U 22123A   26060.39835645 -.00000119  00000+0  00000+0 0  9990
2 53960   0.0136 106.1571 0001279 317.8977 135.4192  1.00270289 12453
SES-21                  
1 53961U 22123B   26060.51878209  .00000051  00000+0  00000+0 0  9992
2 53961   0.0274  62.4328 0000996 281.7864 230.8472  1.00270681  6135
O3B MPOWER F1           
1 54755U 22174A   26058.53300325 -.00000026  00000+0  00000+0 0  9991
2 54755   0.0641 351.4493 0005158   3.4086 238.9684  5.00103025 59873
O3B MPOWER F2           
1 54756U 22174B   26048.35866194 -.00000015  00000+0  00000+0 0  9990
2 54756   0.0642 348.2682 0001560 220.5550 151.1634  5.00731386 59441
SES-18                  
1 55970U 23038A   26060.42669280 -.00000118  00000+0  00000+0 0  9992
2 55970   0.0668 273.2835 0002456  23.2371 273.1860  1.00265374 11022
SES-19                  
1 55971U 23038B   26060.52030640  .00000069  00000+0  00000+0 0  9990
2 55971   0.0592 283.7981 0001788  46.9124 240.9938  1.00271073 11001
O3B MPOWER F4           
1 56367U 23059A   26048.24074746 -.00000015  00000+0  00000+0 0  9995
2 56367   0.0593   7.9241 0006460 334.3658  17.6828  5.00119607 52601
O3B MPOWER F5           
1 58346U 23175A   26060.36748294 -.00000029  00000+0  00000+0 0  9991
2 58346   0.0395   2.0031 0004128 342.6728  15.3040  5.00115683 44042
ASTRA 1P (SES-24)       
1 60086U 24115A   26060.18308693  .00000101  00000+0  00000+0 0  9995
2 60086   0.0589 334.1299 0005009 349.8668 280.0749  1.00268917  6115
